{
    "links": {
        "self": "http://www.neowsapp.com/rest/v1/neo/3837748?api_key=iIulBulltgU6a56xZRHN4H3l9WmuAYTsLGpBGhQ2"
    },
    "id": "3837748",
    "neo_reference_id": "3837748",
    "name": "(2019 AH7)",
    "designation": "2019 AH7",
    "nasa_jpl_url": "http://ssd.jpl.nasa.gov/sbdb.cgi?sstr=3837748",
    "absolute_magnitude_h": 23.3,
    "estimated_diameter": {
        "kilometers": {
            "estimated_diameter_min": 0.058150704,
            "estimated_diameter_max": 0.130028927
        },
        "meters": {
            "estimated_diameter_min": 58.1507039646,
            "estimated_diameter_max": 130.0289270043
        },
        "miles": {
            "estimated_diameter_min": 0.0361331611,
            "estimated_diameter_max": 0.0807962044
        },
        "feet": {
            "estimated_diameter_min": 190.7831555951,
            "estimated_diameter_max": 426.6041048727
        }
    },
    "is_potentially_hazardous_asteroid": false,
    "close_approach_data": [
        {
            "close_approach_date": "2018-11-30",
            "close_approach_date_full": "2018-Nov-30 08:18",
            "epoch_date_close_approach": 1543565880000,
            "relative_velocity": {
                "kilometers_per_second": "14.2224616333",
                "kilometers_per_hour": "51200.8618797252",
                "miles_per_hour": "31814.2244274326"
            },
            "miss_distance": {
                "astronomical": "0.245038614",
                "lunar": "95.320020846",
                "kilometers": "36657254.72215218",
                "miles": "22777761.865492884"
            },
            "orbiting_body": "Earth"
        },
        {
            "close_approach_date": "2020-12-05",
            "close_approach_date_full": "2020-Dec-05 16:16",
            "epoch_date_close_approach": 1607184960000,
            "relative_velocity": {
                "kilometers_per_second": "4.3538984558",
                "kilometers_per_hour": "15674.0344408029",
                "miles_per_hour": "9739.2354557311"
            },
            "miss_distance": {
                "astronomical": "1.7768360588",
                "lunar": "691.1892268732",
                "kilometers": "265810889.735674756",
                "miles": "165167227.9756173928"
            },
            "orbiting_body": "Juptr"
        }
    ],
    "orbital_data": {
        "orbit_id": "2",
        "orbit_determination_date": "2020-11-14 05:23:53",
        "first_observation_date": "2019-01-06",
        "last_observation_date": "2019-01-10",
        "data_arc_in_days": 4,
        "observations_used": 19,
        "orbit_uncertainty": "9",
        "minimum_orbit_intersection": ".0493657",
        "jupiter_tisserand_invariant": "3.281",
        "epoch_osculation": "2458493.5",
        "eccentricity": ".5713830691388821",
        "semi_major_axis": "2.390768167231837",
        "inclination": "6.859746503966434",
        "ascending_node_longitude": "268.3272022457863",
        "orbital_period": "1350.220270991347",
        "perihelion_distance": "1.02472371423937",
        "perihelion_argument": "197.8129493887807",
        "aphelion_distance": "3.756812620224305",
        "perihelion_time": "2458474.635474157660",
        "mean_anomaly": "5.029719556984729",
        "mean_motion": ".2666231634455346",
        "equinox": "J2000",
        "orbit_class": {
            "orbit_class_type": "AMO",
            "orbit_class_description": "Near-Earth asteroid orbits similar to that of 1221 Amor",
            "orbit_class_range": "1.017 AU < q (perihelion) < 1.3 AU"
        }
    },
    "is_sentry_object": false
}